H1 CPF 01  gfz 2022 04 22 12  6122 terrasarx 
H2 0702601  6201 31698    2022 04 22 12 59 42 2022 04 27 00 00 42   120 1 1  0 0 0
H9
10 0 59692  43182.000000  0     194902.655   6624728.820   1872984.403
10 0 59692  43302.000000  0     363655.472   6313511.793   2724371.061
10 0 59692  43422.000000  0     519611.779   5889071.243   3527788.013
10 0 59692  43542.000000  0     658132.878   5359106.743   4269096.718
10 0 59692  43662.000000  0     775039.051   4733251.665   4935266.412
10 0 59692  43782.000000  0     866713.588   4022882.357   5514604.332
10 0 59692  43902.000000  0     930194.627   3240902.924   5996955.353
10 0 59692  44022.000000  0     963250.912   2401503.168   6373876.120
10 0 59692  44142.000000  0     964439.238   1519894.942   6638777.098
10 0 59692  44262.000000  0     933143.981    612032.326   6787031.820
10 0 59692  44382.000000  0     869597.687   -305677.901   6816051.621
10 0 59692  44502.000000  0     774882.204  -1216671.400   6725329.100
10 0 59692  44622.000000  0     650910.161  -2104525.297   6516447.119
10 0 59692  44742.000000  0     500387.018  -2953254.224   6193053.484
10 0 59692  44862.000000  0     326754.315  -3747600.323   5760800.018
10 0 59692  44982.000000  0     134115.782  -4473308.338   5227247.206
10 0 59692  45102.000000  0     -72852.144  -5117384.643   4601739.361
10 0 59692  45222.000000  0    -289004.846  -5668338.585   3895248.619
10 0 59692  45342.000000  0    -508848.217  -6116398.182   3120185.490
10 0 59692  45462.000000  0    -726667.871  -6453693.610   2290181.510
10 0 59692  45582.000000  0    -936664.711  -6674404.200   1419847.247
10 0 59692  45702.000000  0   -1133095.327  -6774868.171    524511.311
10 0 59692  45822.000000  0   -1310414.095  -6753648.481   -380058.784
10 0 59692  45942.000000  0   -1463410.586  -6611551.977  -1277943.641
10 0 59692  46062.000000  0   -1587340.041  -6351603.764  -2153360.530
10 0 59692  46182.000000  0   -1678044.246  -5978977.969  -2990947.819
10 0 59692  46302.000000  0   -1732059.806  -5500886.134  -3776039.933
10 0 59692  46422.000000  0   -1746710.598  -4926425.833  -4494925.957
10 0 59692  46542.000000  0   -1720182.246  -4266395.266  -5135086.006
10 0 59692  46662.000000  0   -1651577.767  -3533079.960  -5685402.544
10 0 59692  46782.000000  0   -1540953.292  -2740016.292  -6136344.700
10 0 59692  46902.000000  0   -1389333.192  -1901736.042  -6480123.073
10 0 59692  47022.000000  0   -1198704.874  -1033498.063  -6710812.399
10 0 59692  47142.000000  0    -971994.170   -151012.641  -6824443.124
10 0 59692  47262.000000  0    -713020.992    729837.887  -6819061.777
10 0 59692  47382.000000  0    -426435.494   1593277.600  -6694760.400
10 0 59692  47502.000000  0    -117637.226   2423912.042  -6453675.013
10 0 59692  47622.000000  0     207322.695   3206996.656  -6099954.549
10 0 59692  47742.000000  0     541856.768   3928696.316  -5639697.749
10 0 59692  47862.000000  0     878969.908   4576329.196  -5080857.334
10 0 59692  47982.000000  0    1211400.234   5138593.231  -4433114.653
10 0 59692  48102.000000  0    1531770.449   5605771.295  -3707722.541
10 0 59692  48222.000000  0    1832746.230   5969908.668  -2917318.302
10 0 59692  48342.000000  0    2107198.274   6224960.106  -2075709.865
10 0 59692  48462.000000  0    2348364.726   6366902.626  -1197636.677
10 0 59692  48582.000000  0    2550009.634   6393809.097   -298509.057
10 0 59692  48702.000000  0    2706573.146   6305879.791    605867.790
10 0 59692  48822.000000  0    2813309.432   6105431.309   1499578.601
10 0 59692  48942.000000  0    2866408.785   5796843.508   2366886.194
10 0 59692  49062.000000  0    2863101.081   5386465.172   3192516.719
10 0 59692  49182.000000  0    2801738.062   4882480.449   3961935.981
10 0 59692  49302.000000  0    2681852.141   4294740.452   4661611.339
10 0 59692  49422.000000  0    2504187.833   3634560.929   5279253.690
10 0 59692  49542.000000  0    2270707.766   2914494.950   5804029.896
10 0 59692  49662.000000  0    1984575.688   2148088.333   6226748.088
10 0 59692  49782.000000  0    1650113.915   1349619.712   6540014.634
10 0 59692  49902.000000  0    1272736.287    533830.068   6738356.907
10 0 59692  50022.000000  0     858859.206   -284349.738   6818311.866
10 0 59692  50142.000000  0     415792.289  -1090070.975   6778484.149
10 0 59692  50262.000000  0     -48390.986  -1868836.922   6619569.462
10 0 59692  50382.000000  0    -525000.521  -2606763.541   6344342.825
10 0 59692  50502.000000  0   -1004891.580  -3290827.795   5957611.831
10 0 59692  50622.000000  0   -1478637.374  -3909097.907   5466136.277
10 0 59692  50742.000000  0   -1936712.408  -4450944.446   4878518.061
10 0 59692  50862.000000  0   -2369684.702  -4907229.962   4205058.544
10 0 59692  50982.000000  0   -2768411.802  -5270472.016   3457582.585
10 0 59692  51102.000000  0   -3124234.462  -5534973.724   2649231.247
10 0 59692  51222.000000  0   -3429163.768  -5696918.755   1794229.534
10 0 59692  51342.000000  0   -3676058.347  -5754430.266    907632.603
10 0 59692  51462.000000  0   -3858787.103  -5707591.053      5054.460
10 0 59692  51582.000000  0   -3972373.108  -5558424.372   -897614.923
10 0 59692  51702.000000  0   -4013114.698  -5310835.263  -1784498.823
10 0 59692  51822.000000  0   -3978680.336  -4970513.100  -2640021.844
10 0 59692  51942.000000  0   -3868174.956  -4544798.744  -3449189.921
10 0 59692  52062.000000  0   -3682176.204  -4042520.719  -4197855.867
10 0 59692  52182.000000  0   -3422740.912  -3473805.756  -4872965.366
10 0 59692  52302.000000  0   -3093382.341  -2849868.343  -5462780.009
10 0 59692  52422.000000  0   -2699019.151  -2182784.266  -5957073.163
10 0 59692  52542.000000  0   -2245898.001  -1485254.122  -6347297.429
10 0 59692  52662.000000  0   -1741490.465   -770360.432  -6626721.707
10 0 59692  52782.000000  0   -1194367.516    -51323.889  -6790535.206
10 0 59692  52902.000000  0    -614055.162    658736.131  -6835920.132
10 0 59692  53022.000000  0     -10871.594   1347034.716  -6762095.189
10 0 59692  53142.000000  0     604251.131   2001345.376  -6570327.336
10 0 59692  53262.000000  0    1219960.060   2610212.511  -6263914.819
10 0 59692  53382.000000  0    1824687.086   3163149.685  -5848136.497
10 0 59692  53502.000000  0    2406862.120   3650820.092  -5330169.619
10 0 59692  53622.000000  0    2955131.865   4065195.764  -4718976.908
10 0 59692  53742.000000  0    3458580.566   4399695.108  -4025163.227
10 0 59692  53862.000000  0    3906948.911   4649294.613  -3260801.490
10 0 59692  53982.000000  0    4290846.668   4810611.464  -2439229.529
10 0 59692  54102.000000  0    4601952.413   4881954.030  -1574820.502
10 0 59692  54222.000000  0    4833197.113   4863340.614   -682732.133
10 0 59692  54342.000000  0    4978926.008   4756482.679    221363.798
10 0 59692  54462.000000  0    5035031.891   4564733.543   1121562.988
10 0 59692  54582.000000  0    4999059.667   4293005.325   2002015.281
10 0 59692  54702.000000  0    4870279.439   3947654.039   2847212.985
10 0 59692  54822.000000  0    4649722.646   3536334.509   3642273.314
10 0 59692  54942.000000  0    4340181.363   3067830.659   4373206.585
10 0 59692  55062.000000  0    3946173.036   2551865.821   5027164.940
10 0 59692  55182.000000  0    3473870.574   1998897.983   5592669.838
10 0 59692  55302.000000  0    2930997.783   1419904.415   6059810.383
10 0 59692  55422.000000  0    2326697.491    826160.687   6420411.372
10 0 59692  55542.000000  0    1671373.097    229019.859   6668168.958
10 0 59692  55662.000000  0     976506.902   -360303.132   6798755.820
10 0 59692  55782.000000  0     254457.002   -930941.991   6809893.490
10 0 59692  55902.000000  0    -481763.166  -1472579.308   6701388.796
10 0 59692  56022.000000  0   -1218719.163  -1975632.863   6475136.369
10 0 59692  56142.000000  0   -1942799.415  -2431424.963   6135085.986
10 0 59692  56262.000000  0   -2640464.104  -2832331.916   5687178.683
10 0 59692  56382.000000  0   -3298499.641  -3171914.667   5139251.732
10 0 59692  56502.000000  0   -3904274.145  -3445026.037   4500906.939
10 0 59692  56622.000000  0   -4445984.267  -3647891.181   3783345.895
10 0 59692  56742.000000  0   -4912890.170  -3778160.780   2999176.571
10 0 59692  56862.000000  0   -5295534.513  -3834936.132   2162193.542
10 0 59692  56982.000000  0   -5585940.572  -3818765.367   1287132.814
10 0 59692  57102.000000  0   -5777782.352  -3731608.804    389406.466
10 0 59692  57222.000000  0   -5866523.249  -3576774.992   -515176.207
10 0 59692  57342.000000  0   -5849519.567  -3358829.400  -1410696.298
10 0 59692  57462.000000  0   -5726084.701  -3083476.756  -2281415.576
10 0 59692  57582.000000  0   -5497512.573  -2757420.956  -3112059.863
10 0 59692  57702.000000  0   -5167062.100  -2388207.445  -3888090.992
10 0 59692  57822.000000  0   -4739902.908  -1984051.445  -4595961.661
10 0 59692  57942.000000  0   -4223024.764  -1553657.174  -5223348.944
10 0 59692  58062.000000  0   -3625112.894  -1106031.765  -5759362.741
10 0 59692  58182.000000  0   -2956392.817   -650298.199  -6194725.073
10 0 59692  58302.000000  0   -2228449.208   -195511.852  -6521919.311
10 0 59692  58422.000000  0   -1454021.595    249515.685  -6735308.406
10 0 59692  58542.000000  0    -646781.905    676382.201  -6831220.768
10 0 59692  58662.000000  0     178902.268   1077249.212  -6808006.427
10 0 59692  58782.000000  0    1008216.378   1444981.570  -6666062.123
10 0 59692  58902.000000  0    1826158.556   1773271.403  -6407827.960
10 0 59692  59022.000000  0    2617805.826   2056745.438  -6037749.850
10 0 59692  59142.000000  0    3368582.562   2291052.537  -5562210.439
10 0 59692  59262.000000  0    4064525.873   2472930.646  -4989429.150
10 0 59692  59382.000000  0    4692546.981   2600253.007  -4329332.436
10 0 59692  59502.000000  0    5240682.686   2672051.776  -3593391.758
10 0 59692  59622.000000  0    5698329.845   2688518.177  -2794432.453
99
